EYESAT A (AO-27)        
1 22825U 93061C   26130.73029215  .00000054  00000+0  37659-4 0  9991
2 22825  98.6893 198.1539 0007926 202.9696 157.1133 14.30931840701640
ITAMSAT (IO-26)         
1 22826U 93061D   26130.72085628  .00000047  00000+0  34660-4 0  9992
2 22826  98.6842 198.0581 0008749 186.4877 173.6194 14.31357707701951
RADIO ROSTO (RS15)      
1 23439U 94085A   26130.86656728 -.00000049  00000+0 -17893-3 0  9992
2 23439  64.8195   3.5757 0154904  10.6998 349.7161 11.27583706291697
JAS-2 (FO-29)           
1 24278U 96046B   26130.60361183 -.00000043  00000+0 -75129-5 0  9995
2 24278  98.5282 344.6156 0349606 193.8122 165.3262 13.53272308468087
FORTE                   
1 24920U 97047A   26130.61827184  .00000148  00000+0  82707-4 0  9993
2 24920  69.9518  98.8772 0023546 323.3750  36.5761 14.27929106493321
TECHSAT 1B (GO-32)      
1 25397U 98043D   26130.83550286  .00000047  00000+0  40697-4 0  9999
2 25397  99.0063 122.6543 0001121  17.1238 342.9977 14.24420966446019
ISS (ZARYA)             
1 25544U 98067A   26130.71520280  .00006215  00000+0  12011-3 0  9998
2 25544  51.6310 125.5915 0007454  44.6609 315.4979 15.49176858565946
IMAGE                   
1 26113U 00017A   26128.55032032 -.00000008  00000+0 -25034-1 0  9994
2 26113  94.1980 314.8469 7462056 292.3139   8.1146  1.68666113160836
CLUSTER II-FM7 (SAMBA)  
1 26410U 00041A   26130.20719946  .00003007  00000+0  00000+0 0  9996
2 26410 149.7574  44.0320 9007788 260.7661   0.4598  0.44818912 20131
CLUSTER II-FM8 (TANGO)  
1 26464U 00045B   26130.14160082  .00003120  00000+0  00000+0 0  9999
2 26464 150.0346  45.1293 9013438 261.7017   0.4740  0.44409144 20129
ODIN                    
1 26702U 01007A   26130.68336919  .00076724  00000+0  75399-3 0  9993
2 26702  97.3931 169.5201 0001580 203.2319 156.8870 15.65785950383515
OMNI-M1                 
1 26857U 01026A   26130.77312218 -.00000020  00000+0  00000+0 0  9991
2 26857  44.8448 253.8875 0015512  46.9125 313.2386  3.92401492204108
PCSAT (NO-44)           
1 26931U 01043C   26130.86167984  .00000079  00000+0  60287-4 0  9992
2 26931  67.0515 340.8132 0006305 263.6537  96.3847 14.31941338285104
PROBA-1                 
1 26958U 01049B   26130.89728470  .00001939  00000+0  12882-3 0  9996
2 26958  97.9612 138.1303 0053792 248.6376 110.9105 15.07355929338004
SAUDISAT 1C (SO-50)     
1 27607U 02058C   26130.72927866  .00000748  00000+0  10595-3 0  9997
2 27607  64.5524 244.8702 0075633 269.3097  89.9342 14.82966856258901
CORIOLIS                
1 27640U 03001A   26130.63920571  .00000075  00000+0  55998-4 0  9999
2 27640  98.7137 138.0963 0013282 325.3461  34.6849 14.19934288208896
CUTE-1 (CO-55)          
1 27844U 03031E   26130.87566954  .00000207  00000+0  10844-3 0  9992
2 27844  98.6748 139.9031 0008396 297.4557  62.5768 14.24312132186361
CUBESAT XI-IV (CO-57)   
1 27848U 03031J   26130.49403878  .00000172  00000+0  94879-4 0  9991
2 27848  98.6781 139.2691 0008585 319.4878  40.5660 14.23600267186015
MOZHAETS 4 (RS22)       
1 27939U 03042A   26130.87621794  .00000619  00000+0  10376-3 0  9990
2 27939  98.3475 314.1834 0012006  32.6503 104.1504 14.73400956210052
