OBJECT_NAME,OBJECT_ID,EPOCH,MEAN_MOTION,ECCENTRICITY,INCLINATION,RA_OF_ASC_NODE,ARG_OF_PERICENTER,MEAN_ANOMALY,EPHEMERIS_TYPE,CLASSIFICATION_TYPE,NORAD_CAT_ID,ELEMENT_SET_NO,REV_AT_EPOCH,BSTAR,MEAN_MOTION_DOT,MEAN_MOTION_DDOT
EYESAT A (AO-27),1993-061C,2026-05-10T17:31:37.241760,14.30931840,.0007926,98.6893,198.1539,202.9696,157.1133,0,U,22825,999,70164,.37659E-4,.54E-6,0
ITAMSAT (IO-26),1993-061D,2026-05-10T17:18:01.982592,14.31357707,.0008749,98.6842,198.0581,186.4877,173.6194,0,U,22826,999,70195,.3466E-4,.47E-6,0
RADIO ROSTO (RS15),1994-085A,2026-05-10T20:47:51.412992,11.27583706,.0154904,64.8195,3.5757,10.6998,349.7161,0,U,23439,999,29169,-.17893E-3,-.49E-6,0
JAS-2 (FO-29),1996-046B,2026-05-10T14:29:12.062112,13.53272308,.0349606,98.5282,344.6156,193.8122,165.3262,0,U,24278,999,46808,-.75129E-5,-.43E-6,0
FORTE,1997-047A,2026-05-10T14:50:18.686976,14.27929106,.0023546,69.9518,98.8772,323.3750,36.5761,0,U,24920,999,49332,.82707E-4,.148E-5,0
TECHSAT 1B (GO-32),1998-043D,2026-05-10T20:03:07.447104,14.24420966,.0001121,99.0063,122.6543,17.1238,342.9977,0,U,25397,999,44601,.40697E-4,.47E-6,0
ISS (ZARYA),1998-067A,2026-05-10T17:09:53.521920,15.49176858,.0007454,51.6310,125.5915,44.6609,315.4979,0,U,25544,999,56594,.12011E-3,.6215E-4,0
IMAGE,2000-017A,2026-05-08T13:12:27.675648,1.68666113,.74620565,94.1980,314.8469,292.3139,8.1146,0,U,26113,999,16083,-.25033507E-1,-.8E-7,0
CLUSTER II-FM7 (SAMBA),2000-041A,2026-05-10T04:58:22.033344,0.44818912,.90077886,149.7574,44.0320,260.7661,0.4598,0,U,26410,999,2013,0,.3007E-4,0
CLUSTER II-FM8 (TANGO),2000-045B,2026-05-10T03:23:54.310848,0.44409144,.90134383,150.0346,45.1293,261.7017,0.4740,0,U,26464,999,2012,0,.312E-4,0
ODIN,2001-007A,2026-05-10T16:24:03.098016,15.65785950,.000158,97.3931,169.5201,203.2319,156.8870,0,U,26702,999,38351,.75399E-3,.76724E-3,0
OMNI-M1,2001-026A,2026-05-10T18:33:17.756352,3.92401492,.0015512,44.8448,253.8875,46.9125,313.2386,0,U,26857,999,20410,0,-.2E-6,0
PCSAT (NO-44),2001-043C,2026-05-10T20:40:49.138176,14.31941338,.0006305,67.0515,340.8132,263.6537,96.3847,0,U,26931,999,28510,.60287E-4,.79E-6,0
PROBA-1,2001-049B,2026-05-10T21:32:05.398080,15.07355929,.0053792,97.9612,138.1303,248.6376,110.9105,0,U,26958,999,33800,.12882E-3,.1939E-4,0
SAUDISAT 1C (SO-50),2002-058C,2026-05-10T17:30:09.676224,14.82966856,.0075633,64.5524,244.8702,269.3097,89.9342,0,U,27607,999,25890,.10595E-3,.748E-5,0
CORIOLIS,2003-001A,2026-05-10T15:20:27.373344,14.19934288,.0013282,98.7137,138.0963,325.3461,34.6849,0,U,27640,999,20889,.55998E-4,.75E-6,0
CUTE-1 (CO-55),2003-031E,2026-05-10T21:00:57.848256,14.24312132,.0008396,98.6748,139.9031,297.4557,62.5768,0,U,27844,999,18636,.10844E-3,.207E-5,0
CUBESAT XI-IV (CO-57),2003-031J,2026-05-10T11:51:24.950592,14.23600267,.0008585,98.6781,139.2691,319.4878,40.5660,0,U,27848,999,18601,.94879E-4,.172E-5,0
MOZHAETS 4 (RS22),2003-042A,2026-05-10T21:01:45.230016,14.73400956,.0012006,98.3475,314.1834,32.6503,104.1504,0,U,27939,999,21005,.10376E-3,.619E-5,0
